INTELSAT 21 (IS-21)     
1 38749U 12045A   26166.46145168 -.00000282  00000+0  00000+0 0  9990
2 38749   0.0181 337.3917 0001258 124.0903 270.3882  1.00270663 50506
ASTRA 2F                
1 38778U 12051A   26166.26464792  .00000153  00000+0  00000+0 0  9990
2 38778   0.0676 258.4540 0001409 283.4172 205.1421  1.00268791 41119
GSAT-10                 
1 38779U 12051B   26166.48936426 -.00000162  00000+0  00000+0 0  9994
2 38779   0.0850 263.0496 0007755 184.1119  75.7949  1.00269977 50083
INTELSAT 23 (IS-23)     
1 38867U 12057A   26166.42497684 -.00000282  00000+0  00000+0 0  9993
2 38867   0.0092  11.5076 0000352  68.7984 283.4031  1.00274177 49932
BEIDOU-2 G6             
1 38953U 12059A   26166.34698455 -.00000176  00000+0  00000+0 0  9993
2 38953   4.4156  73.5391 0009603 324.3705  74.6716  1.00272283 49896
LUCH-5B                 
1 38977U 12061A   26165.97061167 -.00000141  00000+0  00000+0 0  9996
2 38977  10.4768  49.9003 0002552 149.9655  36.5384  1.00272265 49580
YAMAL 300K              
1 38978U 12061B   26166.50917015  .00000073  00000+0  00000+0 0  9992
2 38978   0.0138 283.9782 0001376 326.4581  19.6132  1.00268641 49614
STAR ONE C3             
1 38991U 12062A   26166.45807166 -.00000246  00000+0  00000+0 0  9990
2 38991   0.0144 297.5947 0002131 160.0298 256.0403  1.00271221 49747
EUTELSAT 21B            
1 38992U 12062B   26166.33459116  .00000134  00000+0  00000+0 0  9991
2 38992   0.0668   8.1113 0003077  75.4039 322.1579  1.00274187 49802
ECHOSTAR 16             
1 39008U 12065A   26166.46075833  .00000000  00000+0  00000+0 0  9999
2 39008   0.0232  18.7871 0002176  66.8511 282.4865  1.00270712 49620
ZHONGXING-12            
1 39017U 12067A   26166.49023093 -.00000204  00000+0  00000+0 0  9992
2 39017   0.0354  87.0922 0002778 350.3893  90.2667  1.00272227 49496
EUTELSAT 70B            
1 39020U 12069A   26166.48685090 -.00000041  00000+0  00000+0 0  9997
2 39020   0.0637  12.0509 0003948  64.7597  72.7110  1.00271476 49493
YAMAL 402               
1 39022U 12070A   26166.48381757  .00000088  00000+0  00000+0 0  9994
2 39022   1.2609  84.1805 0003600 359.3634  49.2937  1.00270680 49386
SKYNET 5D               
1 39034U 12075A   26166.48338424  .00000102  00000+0  00000+0 0  9992
2 39034   0.0673 346.3198 0003428 106.6083  37.6352  1.00269537 49149
MEXSAT 3                
1 39035U 12075B   26166.45018494 -.00000022  00000+0  00000+0 0  9994
2 39035   0.0153  57.1738 0001153  13.6614 240.1673  1.00268300  7036
TDRS 11                 
1 39070U 13004A   26166.50322515  .00000079  00000+0  00000+0 0  9995
2 39070   3.5183  31.2340 0005523  19.8302 219.4817  1.00268894 46675
AMAZONAS 3              
1 39078U 13006A   26166.46084500 -.00000280  00000+0  00000+0 0  9994
2 39078   0.0391 220.0262 0001804 270.5838 238.0335  1.00272916 44899
AZERSPACE 1             
1 39079U 13006B   26166.48199756  .00000136  00000+0  00000+0 0  9996
2 39079   0.0169   2.4285 0001176 112.3229   8.5230  1.00269115 48793
SBIRS GEO-2 (USA 241)   
1 39120U 13011A   26166.46309836 -.00000287  00000+0  00000+0 0  9997
2 39120   4.4860  52.5092 0002176  23.6122 304.5373  1.00271384 48513
EUTELSAT 117 WEST A     
1 39122U 13012A   26166.44975161 -.00000010  00000+0  00000+0 0  9992
2 39122   0.0130   0.1602 0002624  83.7987 224.8789  1.00270867 48416
ANIK G1                 
1 39127U 13014A   26166.45165829 -.00000071  00000+0  00000+0 0  9999
2 39127   0.0174   5.6598 0001470  71.1771 242.1805  1.00270634 48237
ZHONGXING-11            
1 39157U 13020A   26166.49233380 -.00000288  00000+0  00000+0 0  9991
2 39157   0.0528  62.9640 0002014  14.9224 101.0427  1.00269950 47882
EUTELSAT 7B             
1 39163U 13022A   26166.26040124  .00000052  00000+0  00000+0 0  9995
2 39163   0.0165   2.6070 0004624  44.5714 317.1248  1.00272408 47924
WGS F5 (USA 243)        
1 39168U 13024A   26166.46249168  .00000000  00000+0  00000+0 0  9996
2 39168   0.0234 358.0417 0000563 317.5455  62.1483  1.00264369 47152
SES-6                   
1 39172U 13026A   26166.39357485 -.00000258  00000+0  00000+0 0  9993
2 39172   0.0186   3.9793 0002462  96.2598 264.6195  1.00269815 47706
IRNSS-1A                
1 39199U 13034A   26160.59779131  .00000070  00000+0  00000+0 0  9994
2 39199  35.7049  63.9797 0017411 184.2474 279.8453  1.00272948 47299
MUOS-2                  
1 39206U 13036A   26166.50878299 -.00000014  00000+0  00000+0 0  9996
2 39206   4.9920  45.5301 0050930 177.5497  35.8253  1.00272904 47171
ALPHASAT                
1 39215U 13038A   26165.97879672  .00000137  00000+0  00000+0 0  9999
2 39215   2.9985   1.3785 0001637  97.5348 181.5670  1.00270020 43997
INSAT-3D                
1 39216U 13038B   26166.49852815 -.00000338  00000+0  00000+0 0  9992
2 39216   1.9219  82.5603 0000551 308.3580 181.8519  1.00269887 47068
WGS F6 (USA 244)        
1 39222U 13041A   26166.47961602  .00000092  00000+0  00000+0 0  9992
2 39222   0.0172   2.3683 0000207 256.8148  42.0482  1.00269784 46046
ES'HAIL 1               
1 39233U 13044A   26165.47977676  .00000151  00000+0  00000+0 0  9990
2 39233   0.0540  20.6505 0002036  59.8985  20.4321  1.00273168 46600
GSAT-7                  
1 39234U 13044B   26166.48754425 -.00000074  00000+0  00000+0 0  9993
2 39234   0.0800  94.9790 0003185 189.7141 228.5639  1.00270281 45248
