OBJECT_NAME,OBJECT_ID,EPOCH,MEAN_MOTION,ECCENTRICITY,INCLINATION,RA_OF_ASC_NODE,ARG_OF_PERICENTER,MEAN_ANOMALY,EPHEMERIS_TYPE,CLASSIFICATION_TYPE,NORAD_CAT_ID,ELEMENT_SET_NO,REV_AT_EPOCH,BSTAR,MEAN_MOTION_DOT,MEAN_MOTION_DDOT
INTELSAT 21 (IS-21),2012-045A,2026-06-15T11:04:29.425152,1.00270663,.0001258,0.0181,337.3917,124.0903,270.3882,0,U,38749,999,5050,0,-.282E-5,0
ASTRA 2F,2012-051A,2026-06-15T06:21:05.580288,1.00268791,.0001409,0.0676,258.4540,283.4172,205.1421,0,U,38778,999,4111,0,.153E-5,0
GSAT-10,2012-051B,2026-06-15T11:44:41.072064,1.00269977,.0007755,0.0850,263.0496,184.1119,75.7949,0,U,38779,999,5008,0,-.162E-5,0
INTELSAT 23 (IS-23),2012-057A,2026-06-15T10:11:57.998976,1.00274177,.0000352,0.0092,11.5076,68.7984,283.4031,0,U,38867,999,4993,0,-.282E-5,0
BEIDOU-2 G6,2012-059A,2026-06-15T08:19:39.465120,1.00272283,.0009603,4.4156,73.5391,324.3705,74.6716,0,U,38953,999,4989,0,-.176E-5,0
LUCH-5B,2012-061A,2026-06-14T23:17:40.848288,1.00272265,.0002552,10.4768,49.9003,149.9655,36.5384,0,U,38977,999,4958,0,-.141E-5,0
YAMAL 300K,2012-061B,2026-06-15T12:13:12.300960,1.00268641,.0001376,0.0138,283.9782,326.4581,19.6132,0,U,38978,999,4961,0,.73E-6,0
STAR ONE C3,2012-062A,2026-06-15T10:59:37.391424,1.00271221,.0002131,0.0144,297.5947,160.0298,256.0403,0,U,38991,999,4974,0,-.246E-5,0
EUTELSAT 21B,2012-062B,2026-06-15T08:01:48.676224,1.00274187,.0003077,0.0668,8.1113,75.4039,322.1579,0,U,38992,999,4980,0,.134E-5,0
ECHOSTAR 16,2012-065A,2026-06-15T11:03:29.519712,1.00270712,.0002176,0.0232,18.7871,66.8511,282.4865,0,U,39008,999,4962,0,0,0
ZHONGXING-12,2012-067A,2026-06-15T11:45:55.952352,1.00272227,.0002778,0.0354,87.0922,350.3893,90.2667,0,U,39017,999,4949,0,-.204E-5,0
EUTELSAT 70B,2012-069A,2026-06-15T11:41:03.917760,1.00271476,.0003948,0.0637,12.0509,64.7597,72.7110,0,U,39020,999,4949,0,-.41E-6,0
YAMAL 402,2012-070A,2026-06-15T11:36:41.838048,1.00270680,.00036,1.2609,84.1805,359.3634,49.2937,0,U,39022,999,4938,0,.88E-6,0
SKYNET 5D,2012-075A,2026-06-15T11:36:04.398336,1.00269537,.0003428,0.0673,346.3198,106.6083,37.6352,0,U,39034,999,4914,0,.102E-5,0
MEXSAT 3,2012-075B,2026-06-15T10:48:15.978816,1.00268300,.0001153,0.0153,57.1738,13.6614,240.1673,0,U,39035,999,703,0,-.22E-6,0
TDRS 11,2013-004A,2026-06-15T12:04:38.652960,1.00268894,.0005523,3.5183,31.2340,19.8302,219.4817,0,U,39070,999,4667,0,.79E-6,0
AMAZONAS 3,2013-006A,2026-06-15T11:03:37.008000,1.00272916,.0001804,0.0391,220.0262,270.5838,238.0335,0,U,39078,999,4489,0,-.28E-5,0
AZERSPACE 1,2013-006B,2026-06-15T11:34:04.589184,1.00269115,.0001176,0.0169,2.4285,112.3229,8.5230,0,U,39079,999,4879,0,.136E-5,0
SBIRS GEO-2 (USA 241),2013-011A,2026-06-15T11:06:51.698304,1.00271384,.0002176,4.4860,52.5092,23.6122,304.5373,0,U,39120,999,4851,0,-.287E-5,0
EUTELSAT 117 WEST A,2013-012A,2026-06-15T10:47:38.539104,1.00270867,.0002624,0.0130,0.1602,83.7987,224.8789,0,U,39122,999,4841,0,-.1E-6,0
ANIK G1,2013-014A,2026-06-15T10:50:23.276256,1.00270634,.000147,0.0174,5.6598,71.1771,242.1805,0,U,39127,999,4823,0,-.71E-6,0
ZHONGXING-11,2013-020A,2026-06-15T11:48:57.640320,1.00269950,.0002014,0.0528,62.9640,14.9224,101.0427,0,U,39157,999,4788,0,-.288E-5,0
EUTELSAT 7B,2013-022A,2026-06-15T06:14:58.667136,1.00272408,.0004624,0.0165,2.6070,44.5714,317.1248,0,U,39163,999,4792,0,.52E-6,0
WGS F5 (USA 243),2013-024A,2026-06-15T11:05:59.281152,1.00264369,.0000563,0.0234,358.0417,317.5455,62.1483,0,U,39168,999,4715,0,0,0
SES-6,2013-026A,2026-06-15T09:26:44.867040,1.00269815,.0002462,0.0186,3.9793,96.2598,264.6195,0,U,39172,999,4770,0,-.258E-5,0
IRNSS-1A,2013-034A,2026-06-09T14:20:49.169184,1.00272948,.00174117,35.7049,63.9797,184.2474,279.8453,0,U,39199,999,4729,0,.7E-6,0
MUOS-2,2013-036A,2026-06-15T12:12:38.850336,1.00272904,.005093,4.9920,45.5301,177.5497,35.8253,0,U,39206,999,4717,0,-.14E-6,0
ALPHASAT,2013-038A,2026-06-14T23:29:28.036608,1.00270020,.00016374,2.9985,1.3785,97.5348,181.5670,0,U,39215,999,4399,0,.137E-5,0
INSAT-3D,2013-038B,2026-06-15T11:57:52.832160,1.00269887,.0000551,1.9219,82.5603,308.3580,181.8519,0,U,39216,999,4706,0,-.338E-5,0
WGS F6 (USA 244),2013-041A,2026-06-15T11:30:38.824128,1.00269784,.0000207,0.0172,2.3683,256.8148,42.0482,0,U,39222,999,4604,0,.92E-6,0
ES'HAIL 1,2013-044A,2026-06-14T11:30:52.712064,1.00273168,.0002036,0.0540,20.6505,59.8985,20.4321,0,U,39233,999,4660,0,.151E-5,0
GSAT-7,2013-044B,2026-06-15T11:42:03.823200,1.00270281,.0003185,0.0800,94.9790,189.7141,228.5639,0,U,39234,999,4524,0,-.74E-6,0
